[{"OBJECT_NAME":"STARLINK-3580","OBJECT_ID":"2022-017P","EPOCH":"2026-03-09T23:28:02.611200","MEAN_MOTION":15.08829689,"ECCENTRICITY":0.000107,"INCLINATION":53.2193,"RA_OF_ASC_NODE":337.7907,"ARG_OF_PERICENTER":90.8345,"MEAN_ANOMALY":269.277,"EPHEMERIS_TYPE":0,"CLASSIFICATION_TYPE":"U","NORAD_CAT_ID":51781,"ELEMENT_SET_NO":999,"REV_AT_EPOCH":22246,"BSTAR":4.2186123e-5,"MEAN_MOTION_DOT":3.84e-6,"MEAN_MOTION_DDOT":0},{"OBJECT_NAME":"CZ-4C R\/B","OBJECT_ID":"2021-026B","EPOCH":"2026-03-09T16:37:41.696544","MEAN_MOTION":15.16445633,"ECCENTRICITY":0.00393855,"INCLINATION":97.7468,"RA_OF_ASC_NODE":117.371,"ARG_OF_PERICENTER":22.5612,"MEAN_ANOMALY":337.7341,"EPHEMERIS_TYPE":0,"CLASSIFICATION_TYPE":"U","NORAD_CAT_ID":48080,"ELEMENT_SET_NO":999,"REV_AT_EPOCH":27175,"BSTAR":0.00026802982,"MEAN_MOTION_DOT":5.244e-5,"MEAN_MOTION_DDOT":0}]
